


*******************************************************************************
Ephemeris / MAIL_REQUEST Sun Aug  9 09:43:36 2015 Pasadena, USA  / Horizons
*******************************************************************************
Target body name: Mercury (199)                   {source: DE-0431LE-0431}
Center body name: Solar System Barycenter (0)     {source: DE-0431LE-0431}
Center-site name: BODY CENTER
*******************************************************************************
Start time      : A.D. 2015-Jan-01 00:00:00.0000 CT
Stop  time      : A.D. 2018-Jan-02 00:00:00.0000 CT
Step-size       : 1440 minutes
*******************************************************************************
Center geodetic : 0.00000000,0.00000000,0.0000000 {E-lon(deg),Lat(deg),Alt(km)}
Center cylindric: 0.00000000,0.00000000,0.0000000 {E-lon(deg),Dxy(km),Dz(km)}
Center radii    : (undefined)
Output units    : KM-S
Output format   : 02
Reference frame : ICRF/J2000.0
Output type     : GEOMETRIC cartesian states
Coordinate systm: Ecliptic and Mean Equinox of Reference Epoch
*******************************************************************************
JDCT
   X     Y     Z
   VX    VY    VZ
*******************************************************************************
$$SOE
2457582.500000000 = A.D. 2016-Jul-13 00:00:00.0000 (CT)
  -3.721444675689559E+07  3.335378220439778E+07  6.132442132517705E+06
  -4.193130009951788E+01 -3.471231649386573E+01  1.009336378344814E+00
2457583.500000000 = A.D. 2016-Jul-14 00:00:00.0000 (CT)
  -4.068972417013861E+07  3.023363654790132E+07  6.196221592170019E+06
  -3.849091858193522E+01 -3.744700366463410E+01  4.702518763200647E-01
2457584.500000000 = A.D. 2016-Jul-15 00:00:00.0000 (CT)
  -4.386223841123851E+07  2.689426896379501E+07  6.214311855342293E+06
  -3.493094019183046E+01 -3.978852170662024E+01 -4.767833372237007E-02
2457585.500000000 = A.D. 2016-Jul-16 00:00:00.0000 (CT)
  -4.672366091414061E+07  2.336914973289646E+07  6.188683743077396E+06
  -3.129682024724324E+01 -4.174929111729381E+01 -5.412989564128576E-01
2457586.500000000 = A.D. 2016-Jul-17 00:00:00.0000 (CT)
  -4.926934272211131E+07  1.969047618067349E+07  6.121541638587038E+06
  -2.762826586362308E+01 -4.334610562241311E+01 -1.008339394554687E+00
2457587.500000000 = A.D. 2016-Jul-18 00:00:00.0000 (CT)
  -5.149781856349542E+07  1.588885719908916E+07  6.015252211622218E+06
  -2.395929881199297E+01 -4.459872459820827E+01 -1.447292968106677E+00
2457588.500000000 = A.D. 2016-Jul-19 00:00:00.0000 (CT)
  -5.341032696548052E+07  1.199310971489899E+07  5.872283761461716E+06
  -2.031854859884742E+01 -4.552869183220889E+01 -1.857293505871148E+00
2457589.500000000 = A.D. 2016-Jul-20 00:00:00.0000 (CT)
  -5.501036254634497E+07  8.030147250504114E+06  5.695156037044402E+06
  -1.672969158149247E+01 -4.615838370250400E+01 -2.237997285160386E+00
2457590.500000000 = A.D. 2016-Jul-21 00:00:00.0000 (CT)
  -5.630327006738028E+07  4.024941312170519E+06  5.486399839093680E+06
  -1.321196872237608E+01 -4.651027158496503E+01 -2.589475261528957E+00
2457591.500000000 = A.D. 2016-Jul-22 00:00:00.0000 (CT)
  -5.729588474107807E+07  5.381430298616178E+02  5.248525389885007E+06
  -9.780731500846205E+00 -4.660637312788974E+01 -2.912118147808748E+00
2457592.500000000 = A.D. 2016-Jul-23 00:00:00.0000 (CT)
  -5.799621960041476E+07 -4.021884214432420E+06  4.983998314306516E+06
  -6.447980606155061E+00 -4.646786285525287E+01 -3.206555174407644E+00
2457593.500000000 = A.D. 2016-Jul-24 00:00:00.0000 (CT)
  -5.841319823519328E+07 -8.022931019941714E+06  4.695222057560830E+06
  -3.222874468747491E+00 -4.611481239654142E+01 -3.473586208784688E+00
2457594.500000000 = A.D. 2016-Jul-25 00:00:00.0000 (CT)
  -5.855642965385412E+07 -1.198488809265124E+07  4.384525625679872E+06
  -1.121942901004229E-01 -4.556603288178005E+01 -3.714126214031150E+00
2457595.500000000 = A.D. 2016-Jul-26 00:00:00.0000 (CT)
  -5.843602119689921E+07 -1.589160898686158E+07  4.054155640783865E+06
   2.879240753788848E+00 -4.483899549673029E+01 -3.929160665329023E+00
2457596.500000000 = A.D. 2016-Jul-27 00:00:00.0000 (CT)
  -5.806242510498437E+07 -1.972839794136510E+07  3.706271829259303E+06
   5.748209611289179E+00 -4.394981006229248E+01 -4.119710414342862E+00
2457597.500000000 = A.D. 2016-Jul-28 00:00:00.0000 (CT)
  -5.744631436382519E+07 -2.348189288316631E+07  3.342945191427805E+06
   8.492775084178708E+00 -4.291324528820784E+01 -4.286804512136058E+00
2457598.500000000 = A.D. 2016-Jul-29 00:00:00.0000 (CT)
  -5.659848368146564E+07 -2.713995150508412E+07  2.966158225750889E+06
   1.111201563489081E+01 -4.174277778271912E+01 -4.431459609150119E+00
2457599.500000000 = A.D. 2016-Jul-30 00:00:00.0000 (CT)
  -5.552977180788124E+07 -3.069154245193440E+07  2.577806693602916E+06
   1.360579874392514E+01 -4.045065985660871E+01 -4.554664702842576E+00
2457600.500000000 = A.D. 2016-Jul-31 00:00:00.0000 (CT)
  -5.425100181727577E+07 -3.412664289897195E+07  2.179702509662379E+06
   1.597459092802886E+01 -3.904799861625006E+01 -4.657370171131893E+00
2457601.500000000 = A.D. 2016-Aug-01 00:00:00.0000 (CT)
  -5.277293639656000E+07 -3.743614324673289E+07  1.773577427512368E+06
   1.821929956521305E+01 -3.754484082409333E+01 -4.740480195153078E+00
2457602.500000000 = A.D. 2016-Aug-02 00:00:00.0000 (CT)
  -5.110624559229247E+07 -4.061175924978857E+07  1.361087260771258E+06
   2.034114194719360E+01 -3.595025957105618E+01 -4.804847827979620E+00
2457603.500000000 = A.D. 2016-Aug-03 00:00:00.0000 (CT)
  -4.926148484720899E+07 -4.364595160985471E+07  9.438164382884186E+05
   2.234153738348073E+01 -3.427244001776301E+01 -4.851272102073514E+00
2457604.500000000 = A.D. 2016-Aug-04 00:00:00.0000 (CT)
  -4.724908149862421E+07 -4.653185286842269E+07  5.232827391944733E+05
   2.422201864039218E+01 -3.251876238413200E+01 -4.880496685723806E+00
2457605.500000000 = A.D. 2016-Aug-05 00:00:00.0000 (CT)
  -4.507932821186337E+07 -4.926320130810221E+07  1.009420914929360E+05
   2.598415946552373E+01 -3.069588105741908E+01 -4.893209698034113E+00
2457606.500000000 = A.D. 2016-Aug-06 00:00:00.0000 (CT)
  -4.276238208311114E+07 -5.183428149736673E+07 -3.218066520670652E+05
   2.762951539520306E+01 -2.880979919755787E+01 -4.890044374596400E+00
2457607.500000000 = A.D. 2016-Aug-07 00:00:00.0000 (CT)
  -4.030826837014566E+07 -5.423987107652532E+07 -7.436170235267952E+05
   2.915957545353370E+01 -2.686593858719725E+01 -4.871580343819236E+00
2457608.500000000 = A.D. 2016-Aug-08 00:00:00.0000 (CT)
  -3.772688799982160E+07 -5.647519337290820E+07 -1.163190379081544E+06
   3.057572271968017E+01 -2.486920473609227E+01 -4.838345329072629E+00
2457609.500000000 = A.D. 2016-Aug-09 00:00:00.0000 (CT)
  -3.502802816169693E+07 -5.853587544247799E+07 -1.579271498716854E+06
   3.187920206335439E+01 -2.282404743239140E+01 -4.790817136416914E+00
2457610.500000000 = A.D. 2016-Aug-10 00:00:00.0000 (CT)
  -3.222137543167778E+07 -6.041791115745203E+07 -1.990644366053406E+06
   3.307109362864275E+01 -2.073451705799276E+01 -4.729425823571640E+00
2457611.500000000 = A.D. 2016-Aug-11 00:00:00.0000 (CT)
  -2.931653098157093E+07 -6.211762899075162E+07 -2.396128140611462E+06
   3.415229088683347E+01 -1.860431706784931E+01 -4.654555974604058E+00
2457612.500000000 = A.D. 2016-Aug-12 00:00:00.0000 (CT)
  -2.632302752322436E+07 -6.363166418511872E+07 -2.794573329218887E+06
   3.512348228416312E+01 -1.643685308640106E+01 -4.566549028003042E+00
2457613.500000000 = A.D. 2016-Aug-13 00:00:00.0000 (CT)
  -2.325034771234551E+07 -6.495693503545392E+07 -3.184858159603111E+06
   3.598513568514029E+01 -1.423527910770849E+01 -4.465705624563958E+00
2457614.500000000 = A.D. 2016-Aug-14 00:00:00.0000 (CT)
  -2.010794379954606E+07 -6.609062305593175E+07 -3.565885156991351E+06
   3.673748496106727E+01 -1.200254130653113E+01 -4.352287956865318E+00
2457615.500000000 = A.D. 2016-Aug-15 00:00:00.0000 (CT)
  -1.690525836669935E+07 -6.703015684788872E+07 -3.936577923538063E+06
   3.738051820112292E+01 -9.741419980925311E+00 -4.226522114926519E+00
2457616.500000000 = A.D. 2016-Aug-16 00:00:00.0000 (CT)
  -1.365174602695774E+07 -6.777319952990057E+07 -4.295878120416515E+06
   3.791396713420151E+01 -7.454570156949609E+00 -4.088600433622162E+00
2457617.500000000 = A.D. 2016-Aug-17 00:00:00.0000 (CT)
  -1.035689599804617E+07 -6.831763963772160E+07 -4.642742653322358E+06
   3.833729744766948E+01 -5.144561395758823E+00 -3.938683857208357E+00
2457618.500000000 = A.D. 2016-Aug-18 00:00:00.0000 (CT)
  -7.030255481670104E+06 -6.866158544891797E+07 -4.976141063859984E+06
   3.864969977814775E+01 -2.813917354941399E+00 -3.776904345422005E+00
2457619.500000000 = A.D. 2016-Aug-19 00:00:00.0000 (CT)
  -3.681453797668693E+06 -6.880336273532847E+07 -5.295053131780680E+06
   3.885008123305924E+01 -4.651556710070465E-01 -3.603367354516754E+00
2457620.500000000 = A.D. 2016-Aug-20 00:00:00.0000 (CT)
  -3.202272302082512E+05 -6.874151599627873E+07 -5.598466696315147E+06
   3.893705738367149E+01  1.899171250439689E+00 -3.418154435725129E+00
2457621.500000000 = A.D. 2016-Aug-21 00:00:00.0000 (CT)
   3.043555455171660E+06 -6.847481327718748E+07 -5.885375708929367E+06
   3.890894475446336E+01  4.276433925431962E+00 -3.221326003384253E+00
2457622.500000000 = A.D. 2016-Aug-22 00:00:00.0000 (CT)
   6.399866870829119E+06 -6.800225473229972E+07 -6.154778534802012E+06
   3.876375392380625E+01  6.663881321514988E+00 -3.012924335714684E+00
2457623.500000000 = A.D. 2016-Aug-23 00:00:00.0000 (CT)
   9.738494303963643E+06 -6.732308514723459E+07 -6.405676526276685E+06
   3.849918345146653E+01  9.058593549388560E+00 -2.792976883373315E+00
2457624.500000000 = A.D. 2016-Aug-24 00:00:00.0000 (CT)
   1.304901253607699E+07 -6.643681069726200E+07 -6.637072898618568E+06
   3.811261496407941E+01  1.145743099888998E+01 -2.561499974783575E+00
